ELFIN-B                 
1 43616U 18070D   21040.30679473  .00005393  00000-0  12267-3 0  9993
2 43616  93.0198 252.7968 0016503 132.9042 227.3603 15.42867347135006
ELFIN-A                 
1 43617U 18070E   21040.55962941  .00005520  00000-0  12412-3 0  9990
2 43617  93.0251 253.6269 0015953 128.9200 231.3481 15.43217203135055
CUBEBEL-1 (BSUSAT-1)    
1 43666U 18083E   21040.46900200  .00001584  00000-0  79106-4 0  9998
2 43666  97.4702  70.3903 0013087 253.0131 243.6264 15.18896662126583
CICERO 10               
1 43690U 18088A   21040.42067592  .00001106  00000-0  48174-4 0  9995
2 43690  85.0366 282.1212 0015428 152.6519 207.5538 15.20831101124761
IRVINE01                
1 43693U 18088D   21040.60242416  .00003255  00000-0  13041-3 0  9999
2 43693  85.0333 279.8670 0018349 131.8322 228.4492 15.24455568124950
PROXIMA I               
1 43694U 18088E   21040.60158938  .00001091  00000-0  44982-4 0  9990
2 43694  85.0305 279.9342 0020548 126.7313 233.5820 15.22561432124929
PROXIMA II              
1 43696U 18088G   21040.40255028  .00001011  00000-0  41553-4 0  9991
2 43696  85.0307 280.0727 0020576 127.3728 232.9392 15.22559718124887
FACSAT-1                
1 43721U 18096C   21040.54946079  .00001904  00000-0  71754-4 0  9994
2 43721  97.3984 118.6580 0017125  10.5560 102.7092 15.28201365122583
CENTAURI-2              
1 43722U 18096D   21040.45241411  .00002370  00000-0  86392-4 0  9995
2 43722  97.3998 119.1247 0016903   9.8130 350.3437 15.29060363122599
INNOSAT-2               
1 43738U 18096V   21040.45051103  .00003669  00000-0  11993-3 0  9995
2 43738  97.4037 122.1810 0022180  11.8945  47.1983 15.32144425122797
SIRION PATHFINDER-2     
1 43759U 18099B   21040.46090966  .00000001  00000-0  52507-5 0  9997
2 43759  97.6796 113.7538 0015568 110.4376 249.8546 14.95417874119356
CORVUS BC4              
1 43767U 18099K   21040.49056743  .00000317  00000-0  34293-4 0  9995
2 43767  97.6781 112.9264 0013358 113.6555 246.6100 14.94857960119315
MOVE-II                 
1 43780U 18099Y   21040.44286280  .00000074  00000-0  11803-4 0  9998
2 43780  97.6817 113.7771 0014713 120.4224 239.8453 14.95718604119336
SPACEBEE-7              
1 43816U 18099BL  21040.47321439  .00000760  00000-0  72862-4 0  9991
2 43816  97.6827 114.3364 0014894 106.3058 253.9802 14.95954477118929
SPACEBEE-5              
1 43817U 18099BM  21040.17196048  .00000763  00000-0  71352-4 0  9991
2 43817  97.6910 114.9520 0014504 106.4201 253.8616 14.96931557118918
SPACEBEE-6              
1 43818U 18099BN  21040.46619621  .00000693  00000-0  66383-4 0  9991
2 43818  97.6847 114.6101 0014684 106.4221 253.8616 14.96250777119088
SHIELDS 1               
1 43850U 18104B   21040.42854445  .00000633  00000-0  26190-4 0  9991
2 43850  85.0297  18.6342 0012474 281.4265  78.5575 15.21685842119508
STF-1                   
1 43852U 18104D   21040.43274291  .00001434  00000-0  61076-4 0  9991
2 43852  85.0336  19.2882 0012203 299.1246  60.8773 15.21967842119489
ZACUBE-2                
1 43907U 18111AH  21040.57190214  .00000662  00000-0  29222-4 0  9996
2 43907  97.2469 298.9189 0022265  29.7947  16.8195 15.24950227118145
LUME 1                  
1 43908U 18111AJ  21040.46171498  .00001337  00000-0  54861-4 0  9995
2 43908  97.2474 299.1959 0021678  28.9002 331.3432 15.25742282118151
AOBA VELOX-IV           
1 43940U 19003J   21040.56723704  .00002951  00000-0  11576-3 0  9994
2 43940  97.1979  89.4243 0024836 102.7389 257.6629 15.26222740114797
CATSAT-2                
1 44029U 98067PV  21040.42689964  .00068138  00000-0  30240-3 0  9992
2 44029  51.6373 183.4541 0003979 270.1863  89.8684 15.83717957115796
DELPHINI                
1 44030U 98067PW  21040.45352603  .00138611  18289-4  42232-3 0  9994
2 44030  51.6256 177.2826 0005247 291.4980  68.5467 15.91730942115848
UNITE                   
1 44031U 98067PX  21040.49610531  .00021790  00000-0  18762-3 0  9994
2 44031  51.6351 201.9597 0002727 235.6378 124.4361 15.69228209115529
CATSAT-1                
1 44033U 98067PZ  21036.82960125  .00090007  00000-0  40311-3 0  9997
2 44033  51.6370 202.1941 0003712 249.2396 110.8209 15.83418659115137
RAAVANA-1               
1 44329U 98067QE  21040.48139693  .00019703  00000-0  19005-3 0  9990
2 44329  51.6347 219.9637 0005606 173.6429 186.4639 15.66483938 94032
UGUISU                  
1 44330U 98067QF  21040.51368619  .00019685  00000-0  19157-3 0  9995
2 44330  51.6324 220.1179 0005568 172.9536 187.1539 15.66262801 94011
NEPALISAT-1             
1 44331U 98067QG  21040.53672658  .00023414  00000-0  22491-3 0  9999
2 44331  51.6324 219.5226 0005585 175.9495 184.1547 15.66465522 94036
SPOOQY-1                
1 44332U 98067QH  21040.50446103  .00019530  00000-0  19135-3 0  9996
2 44332  51.6336 220.0790 0004905 177.3496 182.7526 15.66102909 93986
SPACEBEE-9              
1 44370U 19037F   21040.54674763  .00016210  00000-0  28691-3 0  9996
2 44370  45.0014 224.9326 0011617 180.1699 179.9190 15.50105105 91292
SPACEBEE-8              
1 44371U 19037G   21040.48478567  .00057041  00000-0  55925-3 0  9991
2 44371  45.0008 204.1451 0011320 244.3280 115.6449 15.65242024 91534
IOD-1 GEMS              
1 44385U 98067QK  21040.46526552  .00083324  00000-0  43429-3 0  9991
2 44385  51.6332 208.5844 0003064 211.8181 148.2636 15.80184037 91650
MOVE-IIB                
1 44398U 19038N   21040.57042944  .00001597  00000-0  93244-4 0  9999
2 44398  97.5653   5.3203 0025834  33.1371 327.1468 15.13123831 88429
SONATE                  
1 44400U 19038Q   21040.62544407  .00000861  00000-0  53202-4 0  9993
2 44400  97.5707   5.3347 0026012  32.8630 327.4226 15.12309201 88415
LUCKY-7                 
1 44406U 19038W   21040.46244548  .00000897  00000-0  54750-4 0  9992
2 44406  97.5730   5.3640 0025325  32.8413 327.4386 15.12653137 88392
BEESAT 9                
1 44412U 19038AC  21040.43927864  .00001160  00000-0  69299-4 0  9993
2 44412  97.5716   5.3379 0023482  38.4469 321.8430 15.12877772 88095
JAISAT-1                
1 44419U 19038F   21040.44996449  .00001271  00000-0  74614-4 0  9996
2 44419  97.5719   5.7944 0022304  37.2397 323.0376 15.13362657 88439
SWIATOWID               
1 44426U 98067QL  21040.45938392  .00173543  00000-0  64060-3 0  9992
2 44426  51.6351 203.7439 0003727 237.4670 221.1912 15.87154186 91722
KRAKSAT                 
1 44427U 98067QM  21040.44323603  .00014210  00000-0  16691-3 0  9997
2 44427  51.6410 228.6211 0003821 124.9934 317.8177 15.61739056 91432
VCC A                   
1 44428U 98067QN  21040.59797631  .00022605  00000-0  22738-3 0  9996
2 44428  51.6356 222.3054 0003119 154.2219 205.8932 15.65341936 91536
ENTRYSAT                
1 44429U 98067QP  21040.54636246  .00031853  00000-0  27650-3 0  9999
2 44429  51.6314 218.1176 0002990 164.1994 195.9097 15.68796963 91588
VCC C                   
1 44430U 98067QQ  21040.52464931  .00044688  00000-0  30383-3 0  9996
2 44430  51.6311 212.7068 0002789 199.8492 160.2399 15.74449503 90481
VCC B                   
1 44431U 98067QR  21040.58256355  .00022844  00000-0  22780-3 0  9994
2 44431  51.6332 222.1458 0003202 154.4272 205.6883 15.65552948 91477
DUCHIFAT-3              
1 44854U 19089C   21040.53610759  .00000627  00000-0  56718-4 0  9991
2 44854  36.9656 137.0109 0007193 190.0136 170.0466 14.99322775 63892
EYESAT-NANO             
1 44877U 19092E   21040.45450212  .00001334  00000-0  69775-4 0  9990
2 44877  97.4560 225.9652 0011928 275.9766  84.0108 15.17525230 63525
ORBITAL FACTORY 2 (OF-2)
1 45113U 19071C   21040.43434305  .00002277  00000-0  77658-4 0  9990
2 45113  51.6431 297.7647 0012326 187.6906 172.3889 15.34750539 57506
M2 PATHFINDER           
1 45727U 20037E   21040.46816380  .00000706  00000-0  76287-4 0  9997
2 45727  97.7040 221.1094 0012035 228.7972 131.2195 14.91315411 33346
NETSAT-4                
1 46504U 20068U   21040.39452119 -.00000058  00000-0  19925-6 0  9992
2 46504  97.6772 338.4249 0008897 171.4445 188.6922 15.01957549 20015
NETSAT-3                
1 46505U 20068V   21040.33125606 -.00000054  00000-0  49979-6 0  9993
2 46505  97.6784 338.3480 0008454 169.7603 190.3795 15.01927543 20019
NETSAT-1                
1 46506U 20068W   21040.26818334 -.00000053  00000-0  52371-6 0  9992
2 46506  97.6797 338.2735 0007855 164.7082 195.4384 15.01898398 20000
NETSAT-2                
1 46507U 20068X   21040.53624927 -.00000046  00000-0  10565-5 0  9996
2 46507  97.6802 338.5395 0008077 163.6339 196.5147 15.01877620 19993
SPOC                    
1 46921U 98067RR  21040.61007091  .00005698  00000-0  10095-3 0  9999
2 46921  51.6415 252.3678 0001314 328.3481  31.7430 15.51872278 14994
BOBCAT-1                
1 46922U 98067RS  21040.59130890  .00008787  00000-0  14823-3 0  9996
2 46922  51.6419 252.2463 0000845 332.9088  27.1858 15.52486989 14952
NEUTRON-1               
1 46923U 98067RT  21040.61593084  .00005628  00000-0  10017-3 0  9990
2 46923  51.6415 252.4059 0001332 352.3261   7.7708 15.51766886 15026
1998-067RU              
1 46924U 98067RU  21040.30315107  .00011684  00000-0  18716-3 0  9998
2 46924  51.6408 253.3161 0001064  60.5475 299.5621 15.53573567 14950
DESCENT                 
1 46927U 98067RX  21040.29688043  .00005267  00000-0  94338-4 0  9996
2 46927  51.6414 254.0236 0001714  20.1106 339.9951 15.51735837 14881
